HULIANWANG DIGUI-150    
1 67526U 26013E   26025.15851686 -.00000115  00000+0  23740-4 0  9990
2 67526  50.0096 161.6201 0010015 258.6345 101.3432 13.98253437   846
HULIANWANG DIGUI-151    
1 67527U 26013F   26021.15608316 -.00000614  00000+0 -32354-3 0  9992
2 67527  50.0035 177.7600 0009841 238.6748 121.3191 13.98327198   267
HULIANWANG DIGUI-152    
1 67528U 26013G   26024.08719212 -.00000118  00000+0  21603-4 0  9990
2 67528  50.0047 165.9375 0009745 257.1222 102.8592 13.97836723   677
HULIANWANG DIGUI-153    
1 67529U 26013H   26021.44172990 -.00000104  00000+0  31747-4 0  9999
2 67529  50.0011 176.6007 0008856 242.1618 117.8387 13.98470310   298
HULIANWANG DIGUI-154    
1 67530U 26013J   26021.22721932 -.00000008  00000+0  98151-4 0  9998
2 67530  50.0045 177.4718 0008317 246.2151 113.7880 13.98568419   262
CZ-12 R/B               
1 67531U 26013K   26026.08124568  .00000160  00000+0  16039-3 0  9992
2 67531  49.9903 157.1909 0069052 151.1417 209.3338 14.14452584   952
2026-015A               
1 67556U 26015A   26026.25332512  .00000227  00000+0  32425-3 0  9991
2 67556  89.0000 282.9716 0004733 114.7598 245.4046 13.52684574   522
2026-015B               
1 67557U 26015B   26026.25339174  .00000138  00000+0  19043-3 0  9995
2 67557  88.9999 282.9719 0004820 114.1532 246.0125 13.52660236   524
ELECTRON R/B            
1 67558U 26015C   26026.46448662  .00865331 -42429-6  10731-2 0  9999
2 67558  89.0042 282.8343 0620072 255.9144  97.2449 14.85721888   606
ELECTRON KICK STAGE R/B 
1 67559U 26015D   26026.23885440  .00080985  44207-6  13796-2 0  9997
2 67559  89.0537 282.8950 0540219 322.6549  33.8222 14.65516396   569
